[{"OBJECT_NAME":"STARLINK-32862","OBJECT_ID":"2025-022L","EPOCH":"2026-03-09T12:54:16.799616","MEAN_MOTION":15.30119489,"ECCENTRICITY":6.118e-5,"INCLINATION":53.1575,"RA_OF_ASC_NODE":130.5473,"ARG_OF_PERICENTER":156.5334,"MEAN_ANOMALY":203.5695,"EPHEMERIS_TYPE":0,"CLASSIFICATION_TYPE":"U","NORAD_CAT_ID":62864,"ELEMENT_SET_NO":999,"REV_AT_EPOCH":6187,"BSTAR":0.00038388629,"MEAN_MOTION_DOT":0.00011,"MEAN_MOTION_DDOT":0},{"OBJECT_NAME":"NUSHSAT1","OBJECT_ID":"2025-052B","EPOCH":"2026-03-09T15:31:41.225952","MEAN_MOTION":15.31903202,"ECCENTRICITY":0.0005501,"INCLINATION":97.4095,"RA_OF_ASC_NODE":325.7239,"ARG_OF_PERICENTER":84.7512,"MEAN_ANOMALY":275.4357,"EPHEMERIS_TYPE":0,"CLASSIFICATION_TYPE":"U","NORAD_CAT_ID":63211,"ELEMENT_SET_NO":999,"REV_AT_EPOCH":5488,"BSTAR":0.00074857,"MEAN_MOTION_DOT":0.00023034,"MEAN_MOTION_DDOT":0}]
